SAPPHIRE                
1 39088U 13009C   26088.05885151  .00000145  00000+0  65723-4 0  9994
2 39088  98.4239 269.4223 0012185 124.6239 235.6098 14.35216710685087
PRAETORIAN SDA_602      
1 65565U 25203A   26088.23124698  .00000278  00000+0  23799-3 0  9997
2 65565  81.2989  84.8309 0006965  56.4118 303.7702 13.84333193 27637
PRAETORIAN SDA_603      
1 65566U 25203B   26088.23270434  .00000272  00000+0  23447-3 0  9992
2 65566  81.2995  84.6885 0010517  53.9248 306.2881 13.83894741 27643
PRAETORIAN SDA_604      
1 65567U 25203C   26087.98573742  .00000087  00000+0  68272-4 0  9992
2 65567  81.3014  85.2067 0006705  63.4321 296.7521 13.83036645 27597
PRAETORIAN SDA_605      
1 65568U 25203D   26088.11856881  .00000083  00000+0  64396-4 0  9996
2 65568  81.2979  84.8260 0009293  50.9542 309.2440 13.83531260 27625
PRAETORIAN SDA_606      
1 65569U 25203E   26088.10412212  .00000083  00000+0  64137-4 0  9995
2 65569  81.3015  85.0366 0006935  54.8838 305.2967 13.83530581 27613
PRAETORIAN SDA_607      
1 65570U 25203F   26088.08678678  .00000222  00000+0  18758-3 0  9996
2 65570  81.2999  84.8306 0009731  55.9653 304.2426 13.84368421 27623
PRAETORIAN SDA_608      
1 65571U 25203G   26088.03725421  .00000082  00000+0  62913-4 0  9998
2 65571  81.2966  85.0069 0007134  62.3227 297.8652 13.83889238 27600
PRAETORIAN SDA_609      
1 65572U 25203H   26088.06870457  .00000275  00000+0  23545-3 0  9993
2 65572  81.3009  84.9817 0007984  55.3735 304.8174 13.84299918 27618
PRAETORIAN SDA_610      
1 65573U 25203J   26088.23742882  .00000089  00000+0  69871-4 0  9999
2 65573  81.2969  84.7862 0007619  58.1328 302.0569 13.83912332 27636
PRAETORIAN SDA_611      
1 65574U 25203K   26088.05944934  .00000303  00000+0  26494-3 0  9994
2 65574  81.2967  85.0455 0006837  66.2913 293.8960 13.83298489 27607
PRAETORIAN SDA_612      
1 65575U 25203L   26088.22126123  .00000265  00000+0  22340-3 0  9999
2 65575  81.2987  84.6776 0010352  54.1996 306.0121 13.85028526 27640
PRAETORIAN SDA_613      
1 65576U 25203M   26088.11416175  .00000080  00000+0  62669-4 0  9991
2 65576  81.2959  84.9439 0006844  59.5918 300.5913 13.82944088 27615
PRAETORIAN SDA_614      
1 65577U 25203N   26088.12318882  .00000087  00000+0  66376-4 0  9995
2 65577  81.2975  84.8263 0008201  54.2219 305.9699 13.84768005 27630
PRAETORIAN SDA_615      
1 65578U 25203P   26088.22481920  .00000335  00000+0  28844-3 0  9994
2 65578  81.2983  84.6455 0010121  53.0376 307.1705 13.84425398 27644
PRAETORIAN SDA_616      
1 65579U 25203Q   26088.05849342  .00000301  00000+0  26318-3 0  9999
2 65579  81.3024  85.1422 0006626  65.0791 295.1053 13.83313990 27602
