[{"OBJECT_NAME":"SAPPHIRE","OBJECT_ID":"2013-009C","EPOCH":"2026-03-29T01:24:44.770464","MEAN_MOTION":14.3521671,"ECCENTRICITY":0.0012185,"INCLINATION":98.4239,"RA_OF_ASC_NODE":269.4223,"ARG_OF_PERICENTER":124.6239,"MEAN_ANOMALY":235.6098,"EPHEMERIS_TYPE":0,"CLASSIFICATION_TYPE":"U","NORAD_CAT_ID":39088,"ELEMENT_SET_NO":999,"REV_AT_EPOCH":68508,"BSTAR":6.5723e-5,"MEAN_MOTION_DOT":1.45e-6,"MEAN_MOTION_DDOT":0},{"OBJECT_NAME":"PRAETORIAN SDA_602","OBJECT_ID":"2025-203A","EPOCH":"2026-03-29T05:32:59.739072","MEAN_MOTION":13.84333193,"ECCENTRICITY":0.0006965,"INCLINATION":81.2989,"RA_OF_ASC_NODE":84.8309,"ARG_OF_PERICENTER":56.4118,"MEAN_ANOMALY":303.7702,"EPHEMERIS_TYPE":0,"CLASSIFICATION_TYPE":"U","NORAD_CAT_ID":65565,"ELEMENT_SET_NO":999,"REV_AT_EPOCH":2763,"BSTAR":0.00023799,"MEAN_MOTION_DOT":2.78e-6,"MEAN_MOTION_DDOT":0},{"OBJECT_NAME":"PRAETORIAN SDA_603","OBJECT_ID":"2025-203B","EPOCH":"2026-03-29T05:35:05.654976","MEAN_MOTION":13.83894741,"ECCENTRICITY":0.0010517,"INCLINATION":81.2995,"RA_OF_ASC_NODE":84.6885,"ARG_OF_PERICENTER":53.9248,"MEAN_ANOMALY":306.2881,"EPHEMERIS_TYPE":0,"CLASSIFICATION_TYPE":"U","NORAD_CAT_ID":65566,"ELEMENT_SET_NO":999,"REV_AT_EPOCH":2764,"BSTAR":0.00023447,"MEAN_MOTION_DOT":2.72e-6,"MEAN_MOTION_DDOT":0},{"OBJECT_NAME":"PRAETORIAN SDA_604","OBJECT_ID":"2025-203C","EPOCH":"2026-03-28T23:39:27.713088","MEAN_MOTION":13.83036645,"ECCENTRICITY":0.0006705,"INCLINATION":81.3014,"RA_OF_ASC_NODE":85.2067,"ARG_OF_PERICENTER":63.4321,"MEAN_ANOMALY":296.7521,"EPHEMERIS_TYPE":0,"CLASSIFICATION_TYPE":"U","NORAD_CAT_ID":65567,"ELEMENT_SET_NO":999,"REV_AT_EPOCH":2759,"BSTAR":6.8272e-5,"MEAN_MOTION_DOT":8.7e-7,"MEAN_MOTION_DDOT":0},{"OBJECT_NAME":"PRAETORIAN SDA_605","OBJECT_ID":"2025-203D","EPOCH":"2026-03-29T02:50:44.345184","MEAN_MOTION":13.8353126,"ECCENTRICITY":0.0009293,"INCLINATION":81.2979,"RA_OF_ASC_NODE":84.826,"ARG_OF_PERICENTER":50.9542,"MEAN_ANOMALY":309.244,"EPHEMERIS_TYPE":0,"CLASSIFICATION_TYPE":"U","NORAD_CAT_ID":65568,"ELEMENT_SET_NO":999,"REV_AT_EPOCH":2762,"BSTAR":6.4396e-5,"MEAN_MOTION_DOT":8.3e-7,"MEAN_MOTION_DDOT":0},{"OBJECT_NAME":"PRAETORIAN SDA_606","OBJECT_ID":"2025-203E","EPOCH":"2026-03-29T02:29:56.151168","MEAN_MOTION":13.83530581,"ECCENTRICITY":0.0006935,"INCLINATION":81.3015,"RA_OF_ASC_NODE":85.0366,"ARG_OF_PERICENTER":54.8838,"MEAN_ANOMALY":305.2967,"EPHEMERIS_TYPE":0,"CLASSIFICATION_TYPE":"U","NORAD_CAT_ID":65569,"ELEMENT_SET_NO":999,"REV_AT_EPOCH":2761,"BSTAR":6.4137e-5,"MEAN_MOTION_DOT":8.3e-7,"MEAN_MOTION_DDOT":0},{"OBJECT_NAME":"PRAETORIAN SDA_607","OBJECT_ID":"2025-203F","EPOCH":"2026-03-29T02:04:58.377792","MEAN_MOTION":13.84368421,"ECCENTRICITY":0.0009731,"INCLINATION":81.2999,"RA_OF_ASC_NODE":84.8306,"ARG_OF_PERICENTER":55.9653,"MEAN_ANOMALY":304.2426,"EPHEMERIS_TYPE":0,"CLASSIFICATION_TYPE":"U","NORAD_CAT_ID":65570,"ELEMENT_SET_NO":999,"REV_AT_EPOCH":2762,"BSTAR":0.00018758,"MEAN_MOTION_DOT":2.22e-6,"MEAN_MOTION_DDOT":0},{"OBJECT_NAME":"PRAETORIAN SDA_608","OBJECT_ID":"2025-203G","EPOCH":"2026-03-29T00:53:38.763744","MEAN_MOTION":13.83889238,"ECCENTRICITY":0.0007134,"INCLINATION":81.2966,"RA_OF_ASC_NODE":85.0069,"ARG_OF_PERICENTER":62.3227,"MEAN_ANOMALY":297.8652,"EPHEMERIS_TYPE":0,"CLASSIFICATION_TYPE":"U","NORAD_CAT_ID":65571,"ELEMENT_SET_NO":999,"REV_AT_EPOCH":2760,"BSTAR":6.2913e-5,"MEAN_MOTION_DOT":8.2e-7,"MEAN_MOTION_DDOT":0},{"OBJECT_NAME":"PRAETORIAN SDA_609","OBJECT_ID":"2025-203H","EPOCH":"2026-03-29T01:38:56.074848","MEAN_MOTION":13.84299918,"ECCENTRICITY":0.0007984,"INCLINATION":81.3009,"RA_OF_ASC_NODE":84.9817,"ARG_OF_PERICENTER":55.3735,"MEAN_ANOMALY":304.8174,"EPHEMERIS_TYPE":0,"CLASSIFICATION_TYPE":"U","NORAD_CAT_ID":65572,"ELEMENT_SET_NO":999,"REV_AT_EPOCH":2761,"BSTAR":0.00023545,"MEAN_MOTION_DOT":2.75e-6,"MEAN_MOTION_DDOT":0},{"OBJECT_NAME":"PRAETORIAN SDA_610","OBJECT_ID":"2025-203J","EPOCH":"2026-03-29T05:41:53.850048","MEAN_MOTION":13.83912332,"ECCENTRICITY":0.0007619,"INCLINATION":81.2969,"RA_OF_ASC_NODE":84.7862,"ARG_OF_PERICENTER":58.1328,"MEAN_ANOMALY":302.0569,"EPHEMERIS_TYPE":0,"CLASSIFICATION_TYPE":"U","NORAD_CAT_ID":65573,"ELEMENT_SET_NO":999,"REV_AT_EPOCH":2763,"BSTAR":6.9871e-5,"MEAN_MOTION_DOT":8.9e-7,"MEAN_MOTION_DDOT":0},{"OBJECT_NAME":"PRAETORIAN SDA_611","OBJECT_ID":"2025-203K","EPOCH":"2026-03-29T01:25:36.422976","MEAN_MOTION":13.83298489,"ECCENTRICITY":0.0006837,"INCLINATION":81.2967,"RA_OF_ASC_NODE":85.0455,"ARG_OF_PERICENTER":66.2913,"MEAN_ANOMALY":293.896,"EPHEMERIS_TYPE":0,"CLASSIFICATION_TYPE":"U","NORAD_CAT_ID":65574,"ELEMENT_SET_NO":999,"REV_AT_EPOCH":2760,"BSTAR":0.00026494,"MEAN_MOTION_DOT":3.03e-6,"MEAN_MOTION_DDOT":0},{"OBJECT_NAME":"PRAETORIAN SDA_612","OBJECT_ID":"2025-203L","EPOCH":"2026-03-29T05:18:36.970272","MEAN_MOTION":13.85028526,"ECCENTRICITY":0.0010352,"INCLINATION":81.2987,"RA_OF_ASC_NODE":84.6776,"ARG_OF_PERICENTER":54.1996,"MEAN_ANOMALY":306.0121,"EPHEMERIS_TYPE":0,"CLASSIFICATION_TYPE":"U","NORAD_CAT_ID":65575,"ELEMENT_SET_NO":999,"REV_AT_EPOCH":2764,"BSTAR":0.0002234,"MEAN_MOTION_DOT":2.65e-6,"MEAN_MOTION_DDOT":0},{"OBJECT_NAME":"PRAETORIAN SDA_613","OBJECT_ID":"2025-203M","EPOCH":"2026-03-29T02:44:23.575200","MEAN_MOTION":13.82944088,"ECCENTRICITY":0.0006844,"INCLINATION":81.2959,"RA_OF_ASC_NODE":84.9439,"ARG_OF_PERICENTER":59.5918,"MEAN_ANOMALY":300.5913,"EPHEMERIS_TYPE":0,"CLASSIFICATION_TYPE":"U","NORAD_CAT_ID":65576,"ELEMENT_SET_NO":999,"REV_AT_EPOCH":2761,"BSTAR":6.2669e-5,"MEAN_MOTION_DOT":8.0e-7,"MEAN_MOTION_DDOT":0},{"OBJECT_NAME":"PRAETORIAN SDA_614","OBJECT_ID":"2025-203N","EPOCH":"2026-03-29T02:57:23.514048","MEAN_MOTION":13.84768005,"ECCENTRICITY":0.0008201,"INCLINATION":81.2975,"RA_OF_ASC_NODE":84.8263,"ARG_OF_PERICENTER":54.2219,"MEAN_ANOMALY":305.9699,"EPHEMERIS_TYPE":0,"CLASSIFICATION_TYPE":"U","NORAD_CAT_ID":65577,"ELEMENT_SET_NO":999,"REV_AT_EPOCH":2763,"BSTAR":6.6376e-5,"MEAN_MOTION_DOT":8.7e-7,"MEAN_MOTION_DDOT":0},{"OBJECT_NAME":"PRAETORIAN SDA_615","OBJECT_ID":"2025-203P","EPOCH":"2026-03-29T05:23:44.378880","MEAN_MOTION":13.84425398,"ECCENTRICITY":0.0010121,"INCLINATION":81.2983,"RA_OF_ASC_NODE":84.6455,"ARG_OF_PERICENTER":53.0376,"MEAN_ANOMALY":307.1705,"EPHEMERIS_TYPE":0,"CLASSIFICATION_TYPE":"U","NORAD_CAT_ID":65578,"ELEMENT_SET_NO":999,"REV_AT_EPOCH":2764,"BSTAR":0.00028844,"MEAN_MOTION_DOT":3.35e-6,"MEAN_MOTION_DDOT":0},{"OBJECT_NAME":"PRAETORIAN SDA_616","OBJECT_ID":"2025-203Q","EPOCH":"2026-03-29T01:24:13.831488","MEAN_MOTION":13.8331399,"ECCENTRICITY":0.0006626,"INCLINATION":81.3024,"RA_OF_ASC_NODE":85.1422,"ARG_OF_PERICENTER":65.0791,"MEAN_ANOMALY":295.1053,"EPHEMERIS_TYPE":0,"CLASSIFICATION_TYPE":"U","NORAD_CAT_ID":65579,"ELEMENT_SET_NO":999,"REV_AT_EPOCH":2760,"BSTAR":0.00026318,"MEAN_MOTION_DOT":3.01e-6,"MEAN_MOTION_DDOT":0}]
